STARLINK-30813          
1 58213U 23170H   26067.44822676 -.00027426  00000+0 -10147-2 0  9999
2 58213  43.0016 200.8924 0002190 276.2944  83.7658 15.26795732130116
FLOCK 4G-29             
1 62642U 25009AK  26068.81464037  .00011147  00000+0  41831-3 0  9994
2 62642  97.4058 151.3683 0001366 288.0502  72.0588 15.27382318 63721
